ONEWEB-0233             
1 48795U 21045AE  25183.45935177  .00000132  00000+0  31780-3 0  9992
2 48795  87.9064 328.9689 0002249  98.1172 262.0213 13.15548190198314
ONEWEB-0190             
1 48796U 21045AF  25183.37075390  .00000032  00000+0  52148-4 0  9997
2 48796  87.9065 328.9509 0002649 105.1359 255.0065 13.15548736198376
ONEWEB-0236             
1 48797U 21045AG  25183.38818499  .00000163  00000+0  39859-3 0  9992
2 48797  87.9070 328.9558 0002000  96.0300 264.1059 13.15547854198264
ONEWEB-0248             
1 48798U 21045AH  25183.62904095  .00000273  00000+0  69128-3 0  9992
2 48798  87.9062 328.8651 0002565  92.6591 267.4833 13.15548538198456
ONEWEB-0225             
1 48799U 21045AJ  25183.42304859 -.00000003  00000+0 -40761-4 0  9999
2 48799  87.9066 328.9363 0002538 102.7241 257.4173 13.15548155198436
ONEWEB-0215             
1 48800U 21045AK  25183.39294972  .00000205  00000+0  51075-3 0  9993
2 48800  87.9059 328.8946 0002624  98.8856 261.2572 13.15550016198301
ONEWEB-0216             
1 48801U 21045AL  25183.63061299  .00000192  00000+0  47580-3 0  9996
2 48801  87.9061 328.8932 0001891 104.4380 255.6960 13.15549345198346
ONEWEB-0239             
1 48802U 21045AM  25182.87479299  .00000033  00000+0  54066-4 0  9997
2 48802  87.9071 329.0526 0002694  92.9133 267.2306 13.15548942198287
